FLYING LAPTOP           
1 42831U 17042G   26115.85306230  .00002870  00000+0  22978-3 0  9991
2 42831  97.4455 273.4871 0018205 304.0734  55.8762 15.00808344478604
HAWK-A                  
1 43765U 18099H   26115.70022157  .00007697  00000+0  31515-3 0  9997
2 43765  97.3965 168.6348 0037068 109.8643 250.6595 15.23942854405102
HAWK-B                  
1 43794U 18099AN  26115.65989216  .00006507  00000+0  28213-3 0  9991
2 43794  97.4013 168.1180 0033981 126.5669 233.8703 15.22174947405048
HAWK-C                  
1 43799U 18099AT  26115.66219361  .00008872  00000+0  32604-3 0  9990
2 43799  97.3942 169.2570 0042940 111.0387 249.5452 15.27257797405897
SALSAT                  
1 46495U 20068K   26115.73859803  .00008478  00000+0  30336-3 0  9996
2 46495  97.8866 115.6436 0011520 121.8273 238.4089 15.29000493307347
HAWK-2C                 
1 47502U 21006CT  26115.65242948  .00006460  00000+0  19847-3 0  9999
2 47502  97.2332 161.0225 0007807  42.4509 317.7336 15.34014927291445
HAWK-2A                 
1 47505U 21006CW  26115.65538821  .00006479  00000+0  19900-3 0  9990
2 47505  97.2375 161.6722 0007497  46.4014 313.7850 15.34027267291441
HAWK-2B                 
1 47508U 21006CZ  26115.65246806  .00007351  00000+0  22540-3 0  9996
2 47508  97.2247 160.0876 0007959  43.5958 316.5913 15.34029930291443
HAWK-3B                 
1 48931U 21059BE  26115.52654821  .00053561  00000+0  53699-3 0  9994
2 48931  97.6712 307.4247 0005975 156.6043 203.5489 15.65350301269600
HAWK-3C                 
1 48948U 21059BX  26115.59013786  .00043782  00000+0  43962-3 0  9994
2 48948  97.6840 313.0850 0006439 154.1588 205.9994 15.65350352269610
HAWK-3A                 
1 48957U 21059CG  26115.52609127  .00046182  00000+0  46351-3 0  9999
2 48957  97.6785 310.2635 0006115 155.4342 204.7209 15.65353655269605
HAWK-5C                 
1 52754U 22057Y   26115.70131162  .00018892  00000+0  34498-3 0  9993
2 52754  97.6525 272.0928 0003701 248.0141 112.0716 15.49458206218216
HAWK-5B                 
1 52756U 22057AA  26115.70118644  .00020147  00000+0  36766-3 0  9991
2 52756  97.6528 270.4356 0003882 242.7477 117.3378 15.49460655218214
HAWK-5A                 
1 52757U 22057AB  26115.37803253  .00021024  00000+0  38371-3 0  9991
2 52757  97.6525 270.9264 0004063 246.6977 113.3845 15.49448052218161
HAWK-6B                 
1 55324U 23011A   26115.77937903  .00005790  00000+0  25315-3 0  9995
2 55324  40.4993 297.6380 0002828 354.1039   5.9736 15.22446980179851
HAWK-6C                 
1 55326U 23011C   26115.84434809  .00005828  00000+0  25474-3 0  9990
2 55326  40.4983 294.1038 0003438 342.1905  17.8784 15.22450942179871
HAWK-6A                 
1 55327U 23011D   26115.84438109  .00005827  00000+0  25471-3 0  9994
2 55327  40.4992 295.7227 0003166 338.8536  21.2142 15.22449836179876
